BANDWAGON-2 OBJECT D    
1 62380U 24247D   26068.52261193  .00011259  00000+0  40119-3 0  9994
2 62380  44.9954 115.6710 0003488 351.1453   8.9368 15.29076102 67732
STARLINK-35403          
1 66081U 25235Z   26068.80604402  .00020620  00000+0  70629-3 0  9990
2 66081  53.1594 244.4130 0001017  94.1706 265.9411 15.30204053 22942
